NORAD_CAT_ID,OBJECT_NAME,OBJECT_TYPE,EPOCH,MEAN_MOTION,ECCENTRICITY,INCLINATION,RA_OF_ASC_NODE,ARG_OF_PERICENTER,MEAN_ANOMALY,BSTAR,MEAN_MOTION_DOT,MEAN_MOTION_DDOT,TLE_LINE0,TLE_LINE1,TLE_LINE2,SEMIMAJOR_AXIS,PERIOD,APOGEE,PERIGEE,DECAYED
49432.0,STARLINK-3158,PAYLOAD,2022-03-15 02:00:01,15.08853914,0.0001941,53.2154,273.5992,50.8225,2.7777,-0.00073926,-0.00012039,0.0,0 STARLINK-3158,1 49432U 21104AA  22074.08334491 -.00012039  00000-0 -73926-3 0  9994,2 49432  53.2154 273.5992 0001941  50.8225   2.7777 15.08853914 20116,6917.8380000000025,95.437,541.0459999999998,538.36,0.0
49432.0,STARLINK-3158,PAYLOAD,2022-03-15 22:00:00,15.08785741,0.0001915,53.2157,269.8584,49.7724,212.785,0.0020751,0.00032843,0.0,0 STARLINK-3158,1 49432U 21104AA  22074.91667824  .00032843  00000-0  20751-2 0  9995,2 49432  53.2157 269.8584 0001915  49.7724 212.7850 15.08785741 20236,6918.045999999999,95.441,541.236,538.586,0.0
49432.0,STARLINK-3158,PAYLOAD,2022-03-16 14:00:01,15.08844614,0.0001709,53.2158,266.8639,54.4264,231.2273,0.00049549,7.607e-05,0.0,0 STARLINK-3158,1 49432U 21104AA  22075.58334491  .00007607  00000-0  49549-3 0  9997,2 49432  53.2158 266.8639 0001709  54.4264 231.2273 15.08844614  3600,6917.866,95.437,540.914,538.549,0.0
49432.0,STARLINK-3158,PAYLOAD,2022-03-16 20:00:01,15.088406,0.000187,53.2157,265.743,48.4893,155.8676,0.00013043,1.788e-05,0.0,0 STARLINK-3158,1 49432U 21104AA  22075.83334491  .00001788  00000-0  13043-3 0  9999,2 49432  53.2157 265.7430 0001870  48.4893 155.8676 15.08840600  3582,6917.879,95.438,541.0369999999998,538.45,0.0
49432.0,STARLINK-3158,PAYLOAD,2022-03-17 06:00:00,15.08855183,0.0001767,53.2159,263.8712,50.0018,258.85400000000004,-0.00086645,-0.00014057,0.0,0 STARLINK-3158,1 49432U 21104AA  22076.25001157 -.00014057  00000-0 -86645-3 0  9999,2 49432  53.2159 263.8712 0001767  50.0018 258.8540 15.08855183 20438,6917.834,95.437,540.9209999999998,538.477,0.0
49432.0,STARLINK-3158,PAYLOAD,2022-03-17 14:00:01,15.08867873,0.0001767,53.2162,262.3744,53.8405,266.6209,-0.00041164,-6.839e-05,0.0,0 STARLINK-3158,1 49432U 21104AA  22076.58334491 -.00006839  00000-0 -41164-3 0  9991,2 49432  53.2162 262.3744 0001767  53.8405 266.6209 15.08867873  3598,6917.795,95.436,540.883,538.438,0.0
49432.0,STARLINK-3158,PAYLOAD,2022-03-17 22:00:00,15.08845904,0.0001923,53.2163,260.8795,47.5252,284.5657,0.0019315,0.00030591,0.0,0 STARLINK-3158,1 49432U 21104AA  22076.91667824  .00030591  00000-0  19315-2 0  9999,2 49432  53.2163 260.8795 0001923  47.5252 284.5657 15.08845904  3599,6917.861999999999,95.437,541.058,538.3969999999998,0.0
49432.0,STARLINK-3158,PAYLOAD,2022-03-18 08:00:01,15.08825782,0.0001647,53.2163,259.0069,50.5614,26.0608,0.0018895,0.000299,0.0,0 STARLINK-3158,1 49432U 21104AA  22077.33334491  .00029900  00000-0  18895-2 0  9991,2 49432  53.2163 259.0069 0001647  50.5614  26.0608 15.08825782 20600,6917.924,95.438,540.928,538.649,0.0
49432.0,STARLINK-3158,PAYLOAD,2022-03-18 14:00:01,15.08858214,0.0001696999999999,53.2167,257.885,51.8009,303.5069,-0.00086232,-0.00013993,0.0,0 STARLINK-3158,1 49432U 21104AA  22077.58334491 -.00013993  00000-0 -86232-3 0  9996,2 49432  53.2167 257.8850 0001697  51.8009 303.5069 15.08858214  3617,6917.825,95.436,540.864,538.516,0.0
49432.0,STARLINK-3158,PAYLOAD,2022-03-18 22:00:00,15.08829051,0.0001873,53.2165,256.3896,46.1799,320.7437,0.0025116,0.00039899,0.0,0 STARLINK-3158,1 49432U 21104AA  22077.91667824  .00039899  00000-0  25116-2 0  9996,2 49432  53.2165 256.3896 0001873  46.1799 320.7437 15.08829051  3671,6917.9140000000025,95.438,541.075,538.4830000000002,0.0
49432.0,STARLINK-3158,PAYLOAD,2022-03-19 02:00:01,15.08873004,0.0001852,53.2163,255.641,47.5849,145.1891,-0.0037891,-0.00060144,0.0,0 STARLINK-3158,1 49432U 21104AA  22078.08335648 -.00060144  00000-0 -37891-2 0  9993,2 49432  53.2163 255.6410 0001852  47.5849 145.1891 15.08873004 20715,6917.78,95.435,540.9259999999998,538.363,0.0
49432.0,STARLINK-3158,PAYLOAD,2022-03-19 14:00:01,15.0884615,0.0001795,53.2169,253.3957,54.7027,335.4061,-0.0012917,-0.0002079,0.0,0 STARLINK-3158,1 49432U 21104AA  22078.58334491 -.00020790  00000-0 -12917-2 0  9998,2 49432  53.2169 253.3957 0001795  54.7027 335.4061 15.08846150 20799,6917.861999999999,95.437,540.9680000000002,538.485,0.0
49432.0,STARLINK-3158,PAYLOAD,2022-03-19 22:00:01,15.08796406,0.0001879,53.2167,251.9007,48.1128,353.6268,0.0027146,0.00043128,0.0,0 STARLINK-3158,1 49432U 21104AA  22078.91668981  .00043128  00000-0  27146-2 0  9997,2 49432  53.2167 251.9007 0001879  48.1128 353.6268 15.08796406  3610,6918.014,95.44,541.179,538.5790000000002,0.0
49432.0,STARLINK-3158,PAYLOAD,2022-03-20 14:00:01,15.08845407,0.0001751999999999,53.2168,248.9068,54.5706,10.2407,-0.0016273,-0.00026097,0.0,0 STARLINK-3158,1 49432U 21104AA  22079.58334491 -.00026097  00000-0 -16273-2 0  9994,2 49432  53.2168 248.9068 0001752  54.5706  10.2407 15.08845407  3591,6917.864000000001,95.437,540.941,538.5169999999998,0.0
49432.0,STARLINK-3158,PAYLOAD,2022-03-20 22:00:01,15.08813015,0.0001874,53.2165,247.4117,48.6689,27.8046,0.0029934,0.00047639,0.0,0 STARLINK-3158,1 49432U 21104AA  22079.91668981  .00047639  00000-0  29934-2 0  9996,2 49432  53.2165 247.4117 0001874  48.6689  27.8046 15.08813015 20992,6917.9630000000025,95.439,541.124,538.531,0.0
49432.0,STARLINK-3158,PAYLOAD,2022-03-21 14:00:01,15.08860829,0.0001789,53.2166,244.4178,55.2783,44.3025,-0.0017199,-0.00027572,0.0,0 STARLINK-3158,1 49432U 21104AA  22080.58334491 -.00027572  00000-0 -17199-2 0  9993,2 49432  53.2166 244.4178 0001789  55.2783  44.3025 15.08860829 21099,6917.816999999999,95.436,540.919,538.444,0.0
49432.0,STARLINK-3158,PAYLOAD,2022-03-21 22:00:00,15.08826962,0.0001896,53.2163,242.9227,49.1631,62.0298,0.0028522,0.00045381,0.0,0 STARLINK-3158,1 49432U 21104AA  22080.91667824  .00045381  00000-0  28522-2 0  9997,2 49432  53.2163 242.9227 0001896  49.1631  62.0298 15.08826962  3591,6917.92,95.438,541.097,538.474,0.0
49432.0,STARLINK-3158,PAYLOAD,2022-03-22 06:00:00,15.08835676,0.0001742,53.2162,241.4245,54.5234,68.2755,0.0018487,0.00029253,0.0,0 STARLINK-3158,1 49432U 21104AA  22081.25001157  .00029253  00000-0  18487-2 0  9995,2 49432  53.2162 241.4245 0001742  54.5234  68.2755 15.08835676 21197,6917.894,95.438,540.964,538.554,0.0
49432.0,STARLINK-3158,PAYLOAD,2022-03-22 14:00:01,15.08880204,0.0001831,53.2164,239.9288,54.5672,79.8314,-0.002704,-0.00043113,0.0,0 STARLINK-3158,1 49432U 21104AA  22081.58334491 -.00043113  00000-0 -27040-2 0  9999,2 49432  53.2164 239.9288 0001831  54.5672  79.8314 15.08880204  3616,6917.7580000000025,95.435,540.889,538.356,0.0
49432.0,STARLINK-3158,PAYLOAD,2022-03-22 20:00:01,15.08842972,0.00019,53.2164,238.8077,49.1815,3.9453,5.7569e-05,6.28e-06,0.0,0 STARLINK-3158,1 49432U 21104AA  22081.83334491  .00000628  00000-0  57569-4 0  9990,2 49432  53.2164 238.8077 0001900  49.1815   3.9453 15.08842972 21281,6917.871,95.437,541.0509999999998,538.422,0.0
49432.0,STARLINK-3158,PAYLOAD,2022-03-22 22:00:01,15.08831007,0.0001887,53.2161,238.4334,47.215,98.8795,0.0014818,0.00023368,0.0,0 STARLINK-3158,1 49432U 21104AA  22081.91668981  .00023368  00000-0  14818-2 0  9997,2 49432  53.2161 238.4334 0001887  47.2150  98.8795 15.08831007  3565,6917.908,95.438,541.078,538.467,0.0
49432.0,STARLINK-3158,PAYLOAD,2022-03-23 14:00:01,15.08870423,0.0001817,53.2164,235.4398,51.5245,117.6975,-0.0025964,-0.00041408,0.0,0 STARLINK-3158,1 49432U 21104AA  22082.58334491 -.00041408  00000-0 -25964-2 0  9998,2 49432  53.2164 235.4398 0001817  51.5245 117.6975 15.08870423  3612,6917.7869999999975,95.436,540.909,538.395,0.0
49432.0,STARLINK-3158,PAYLOAD,2022-03-23 22:00:00,15.08828509,0.0001882,53.2162,233.9444,44.2596,136.5846,0.0012894,0.00020286,0.0,0 STARLINK-3158,1 49432U 21104AA  22082.91667824  .00020286  00000-0  12894-2 0  9991,2 49432  53.2162 233.9444 0001882  44.2596 136.5846 15.08828509 21441,6917.916,95.438,541.082,538.479,0.0
49432.0,STARLINK-3158,PAYLOAD,2022-03-24 14:00:01,15.08864531,0.0001806,53.2166,230.9509,48.3134,155.7111,-0.002517,-0.00040151,0.0,0 STARLINK-3158,1 49432U 21104AA  22083.58334491 -.00040151  00000-0 -25170-2 0  9992,2 49432  53.2166 230.9509 0001806  48.3134 155.7111 15.08864531  3581,6917.805,95.436,540.92,538.4209999999998,0.0
49432.0,STARLINK-3158,PAYLOAD,2022-03-24 22:00:00,15.08830927,0.0001865,53.2163,229.4553,41.846,173.7956,0.00077712,0.00012098,0.0,0 STARLINK-3158,1 49432U 21104AA  22083.91667824  .00012098  00000-0  77712-3 0  9995,2 49432  53.2163 229.4553 0001865  41.8460 173.7956 15.08830927  3607,6917.908,95.438,541.063,538.4830000000002,0.0
49432.0,STARLINK-3158,PAYLOAD,2022-03-25 00:00:02,15.08846283,0.0001804,53.2163,229.0806,41.9118,266.688,-0.0011316,-0.00018256,0.0,0 STARLINK-3158,1 49432U 21104AA  22084.00002315 -.00018256  00000-0 -11316-2 0  9995,2 49432  53.2163 229.0806 0001804  41.9118 266.6880 15.08846283 21608,6917.861,95.437,540.974,538.4780000000002,0.0
49432.0,STARLINK-3158,PAYLOAD,2022-03-25 14:00:01,15.08867832,0.0001746,53.2167,226.462,44.1104,194.7107,-0.004152,-0.00065814,0.0,0 STARLINK-3158,1 49432U 21104AA  22084.58334491 -.00065814  00000-0 -41520-2 0  9993,2 49432  53.2167 226.4620 0001746  44.1104 194.7107 15.08867832  3585,6917.795,95.436,540.868,538.452,0.0
49432.0,STARLINK-3158,PAYLOAD,2022-03-25 22:00:01,15.08820675,0.0001797,53.2164,224.9661,38.2426,212.2417,0.00099284,0.0001554,0.0,0 STARLINK-3158,1 49432U 21104AA  22084.91668981  .00015540  00000-0  99284-3 0  9994,2 49432  53.2164 224.9661 0001797  38.2426 212.2417 15.08820675 21749,6917.939,95.439,541.048,538.561,0.0
49432.0,STARLINK-3158,PAYLOAD,2022-03-26 14:00:01,15.08835073,0.0001881,53.2174,221.9603,41.4725,232.0605,0.00024718,3.647e-05,0.0,0 STARLINK-3158,1 49432U 21104AA  22085.58334491  .00003647  00000-0  24718-3 0  9999,2 49432  53.2174 221.9603 0001881  41.4725 232.0605 15.08835073 21843,6917.895,95.438,541.062,538.4590000000002,0.0
